#aV2015 10  4  0  0  0.00000000     288 DD+AD WGS84 FIT  NGA
## 1865      0.00000000   300.00000000 57299 0.0000000000000
+   31     1  2  3  4  5  6  7  8  9 11 12 13 14 15 16 17 18
+         19 20 21 22 23 24 25 26 27 28 29 30 31 32  0  0  0
+          0  0  0  0  0  0  0  0  0  0  0  0  0  0  0  0  0
+          0  0  0  0  0  0  0  0  0  0  0  0  0  0  0  0  0
+          0  0  0  0  0  0  0  0  0  0  0  0  0  0  0  0  0
++         2  2  2  2  2  2  2  2  2  2  2  2  2  2  2  2  2
++         2  2  2  2  2  2  2  2  2  2  2  2  2  2  0  0  0
++         0  0  0  0  0  0  0  0  0  0  0  0  0  0  0  0  0
++         0  0  0  0  0  0  0  0  0  0  0  0  0  0  0  0  0
++         0  0  0  0  0  0  0  0  0  0  0  0  0  0  0  0  0
%c cc cc ccc ccc cccc cccc cccc cccc ccccc ccccc ccccc ccccc
%c cc cc ccc ccc cccc cccc cccc cccc ccccc ccccc ccccc ccccc
%f  0.0000000  0.000000000  0.00000000000  0.000000000000000
%f  0.0000000  0.000000000  0.00000000000  0.000000000000000
%i    0    0    0    0      0      0      0      0         0
%i    0    0    0    0      0      0      0      0         0
/*      NGA, ST. LOUIS,MO.                                  
/*   EPHEMERIS COMPUTED FROM  1 DAYS OF DATA                
/*   EPOCHA SMOOTHER                                       
/* CCCCCCCCCCCCCCCCCCCCCCCCCCCCCCCCCCCCCCCCCCCCCCCCCCCCCCCCC
*  2015 10  4 12 10  0.00000000
P  1  13727.374206 -21140.934346   7964.024456      1.715159                    
V  1   -983.331175  10579.774879  29711.766663      0.007446                    
P  2 -15860.987246   -342.503697 -20863.100215    591.490500                    
V  2   7687.531337 -26444.096840  -5743.887517      0.014381                    
P  3  18546.941046 -13104.798028 -13783.794462     20.969653                    
V  3  17625.507575   -898.226826  24533.036668     -0.006685                    
P  4  16397.326802 -13820.274788  15152.123179    -28.071828                    
V  4  -3912.270165  19826.193931  22071.308957     -0.046099                    
P  5 -26228.267721   1513.726257  -4620.605439   -188.652450                    
V  5   5119.746335  -4026.234855 -30589.934036      0.039819                    
P  6 -10474.887068 -13158.661178 -20559.459143     70.378149                    
V  6   9703.665368 -24240.850331  10564.184278      0.071490                    
P  7   4799.797813 -25050.499944   6759.584021    483.590588                    
V  7   5649.132949  -6924.150558 -30608.339032     -0.007853                    
P  8  15017.550822  -5321.084900  21292.331507     -7.543150                    
V  8  16983.984261  20917.916484  -6777.300995     -0.013324                    
P  9  -3500.305195 -21160.127451 -15664.572148     -5.405688                    
V  9  14459.643514  13819.478530 -21921.562754      0.029923                    
P 11  11338.077586 -18864.929336  14255.544256   -608.136818                    
V 11   3844.621181  19271.962383  21704.220680     -0.022673                    
P 12 -20870.664570  10790.444409 -12279.695575    333.870813                    
V 12 -15548.101470    292.134923  27114.735003      0.033380                    
P 13 -18521.392280  -5718.721829  17976.368445   -154.128867                    
V 13 -11580.391898 -20045.670539 -18279.011278     -0.028930                    
P 14  14403.205889  22350.316991   1959.327436     30.309698                    
V 14  -3312.150800   -290.892813  31632.290652     -0.025777                    
P 15 -14781.265459   6904.780987  20902.836603   -275.041192                    
V 15 -17922.826545 -19978.514386  -5713.973831     -0.020216                    
P 16  26301.017352    423.151049  -4995.207681    -79.934054                    
V 16  -5957.757447   2154.521816 -31343.209094      0.038567                    
P 17 -15319.838147 -21795.714651   1660.067093   -189.878375                    
V 17   2806.712843     18.051536  31808.464372     -0.012340                    
P 18    841.700872  16303.966234  21441.128014    439.755073                    
V 18 -25788.261544   4769.378291  -2963.623554      0.035513                    
P 19   6620.619472 -15098.981617  20519.364366   -521.051185                    
V 19  16037.591237  21264.399028  10783.246724     -0.005395                    
P 20 -20680.392379  13194.617220  10125.118014    360.448119                    
V 20 -13553.844653    -11.994614 -27172.786648      0.030150                    
P 21   -483.512893  24661.541517  10117.442299   -484.348926                    
V 21  -6996.102202  10294.267796 -27689.900911     -0.026806                    
P 22  15125.566619  11496.829983  18863.477693    397.547608                    
V 22 -22735.132906   6351.829289  14365.346091      0.035076                    
P 23   9118.446791 -12826.773737 -21182.820914   -136.917653                    
V 23  18143.409644  20533.916389  -5018.415251     -0.021505                    
P 24 -14584.483869  19397.928717  10568.088730     -5.751322                    
V 24   1692.849392 -13730.482690  27608.832107     -0.005802                    
P 25  -8634.837649  15213.341882 -20033.738229    -47.666937                    
V 25 -25009.056622   3411.077439  13596.142298     -0.053377                    
P 26  21630.375665   6113.930503 -14156.230263    -72.818551                    
V 26 -17297.180540   5325.794598 -24121.352951     -0.124436                    
P 27  20186.702048   6953.636934  15850.621492     24.803926                    
V 27  11709.017053  16436.348736 -21964.448301      0.030286                    
P 28 -10597.987402 -12950.924864  21273.359223    472.050946                    
V 28  25296.829852  -3113.775460  10957.499705      0.026430                    
P 29    382.322015  20097.352086 -17367.733353    637.789490                    
V 29 -14405.272250 -16729.077431 -19623.848071      0.020011                    
P 30  -2952.488652 -21024.043658  15908.537684     35.496751                    
V 30  10176.588115 -17633.895924 -21496.185957      0.063246                    
P 31  10461.862223  12197.986263 -20949.122609    300.490680                    
V 31 -10816.002100  24689.004288   9249.464858     -0.014178                    
P 32  25429.042394  -5298.601915  -3954.865672    -24.439186                    
V 32   5375.424254   3156.092376  31261.130200      0.112324                    
EOF
